0 FENGYUN 1C DEB
1 29959U 99025KH  13281.48286471  .00000238  00000-0  17815-3 0   522
2 29959 099.1054 266.9219 0044346 101.0432 020.7302 14.03816274345014
0 FENGYUN 1C DEB
1 29959U 99025KH  13283.67911705  .00000132  00000-0  11120-3 0   537
2 29959 099.1053 269.1218 0044417 095.0386 319.9353 14.03819364345322
0 FENGYUN 1C DEB
1 29959U 99025KH  13285.82959760  .00000052  00000-0  61024-4 0   540
2 29959 099.1052 271.2757 0044482 089.1908 027.8116 14.03820789345627
0 FENGYUN 1C DEB
1 29959U 99025KH  13287.95629293  .00000113  00000-0  99072-4 0   554
2 29959 099.1053 273.4057 0044501 083.4232 335.4797 14.03822107345926
0 FENGYUN 1C DEB
1 29959U 99025KH  13290.53450856  .00000037  00000-0  51152-4 0   562
2 29959 099.1057 275.9876 0044456 076.4724 044.9664 14.03822840346282
0 FENGYUN 1C DEB
1 29959U 99025KH  13292.87494278  .00000102  00000-0  92100-4 0   579
2 29959 099.1060 278.3315 0044363 070.1516 352.8005 14.03822903346615
0 FENGYUN 1C DEB
1 29959U 99025KH  13294.94002751  .00000170  00000-0  13484-3 0   583
2 29959 099.1059 280.4000 0044233 064.5609 349.1191 14.03823292346903
